[{"OBJECT_NAME":"GOES 19","OBJECT_ID":"2024-119A","EPOCH":"2026-04-27T07:52:38.760960","MEAN_MOTION":1.0027304,"ECCENTRICITY":6.45e-5,"INCLINATION":0.0444,"RA_OF_ASC_NODE":72.6583,"ARG_OF_PERICENTER":13.15,"MEAN_ANOMALY":172.4706,"EPHEMERIS_TYPE":0,"CLASSIFICATION_TYPE":"U","NORAD_CAT_ID":60133,"ELEMENT_SET_NO":999,"REV_AT_EPOCH":645,"BSTAR":0,"MEAN_MOTION_DOT":-2.58e-6,"MEAN_MOTION_DDOT":0},{"OBJECT_NAME":"FENGYUN 3H","OBJECT_ID":"2025-219A","EPOCH":"2026-04-27T10:42:33.954048","MEAN_MOTION":14.19944163,"ECCENTRICITY":8.62e-5,"INCLINATION":98.6742,"RA_OF_ASC_NODE":59.2101,"ARG_OF_PERICENTER":106.5456,"MEAN_ANOMALY":253.5816,"EPHEMERIS_TYPE":0,"CLASSIFICATION_TYPE":"U","NORAD_CAT_ID":65815,"ELEMENT_SET_NO":999,"REV_AT_EPOCH":3018,"BSTAR":4.8498e-5,"MEAN_MOTION_DOT":6.0e-7,"MEAN_MOTION_DDOT":0}]
