GOES 19                 
1 60133U 24119A   26117.32822640 -.00000258  00000+0  00000+0 0  9998
2 60133   0.0444  72.6583 0000645  13.1500 172.4706  1.00273040  6452
FENGYUN 3H              
1 65815U 25219A   26117.44622632  .00000060  00000+0  48498-4 0  9992
2 65815  98.6742  59.2101 0000862 106.5456 253.5816 14.19944163 30188
